[{"OBJECT_NAME":"DONGPO 08","OBJECT_ID":"2022-167E","EPOCH":"2026-03-09T22:57:52.742880","MEAN_MOTION":15.31542505,"ECCENTRICITY":0.00092155,"INCLINATION":97.6764,"RA_OF_ASC_NODE":233.3854,"ARG_OF_PERICENTER":153.9158,"MEAN_ANOMALY":206.2548,"EPHEMERIS_TYPE":0,"CLASSIFICATION_TYPE":"U","NORAD_CAT_ID":54686,"ELEMENT_SET_NO":999,"REV_AT_EPOCH":18012,"BSTAR":0.0004734784,"MEAN_MOTION_DOT":0.0001437,"MEAN_MOTION_DDOT":0},{"OBJECT_NAME":"STARLINK-35545","OBJECT_ID":"2025-236Z","EPOCH":"2026-03-09T11:38:15.582912","MEAN_MOTION":15.30191407,"ECCENTRICITY":0.0001675,"INCLINATION":53.16,"RA_OF_ASC_NODE":104.794,"ARG_OF_PERICENTER":77.205,"MEAN_ANOMALY":282.9138,"EPHEMERIS_TYPE":0,"CLASSIFICATION_TYPE":"U","NORAD_CAT_ID":66109,"ELEMENT_SET_NO":999,"REV_AT_EPOCH":2291,"BSTAR":0.00099837529,"MEAN_MOTION_DOT":0.00029319,"MEAN_MOTION_DDOT":0}]
